*******************************************************************************
 Revised: September 28, 2017           Jupiter                              599
 
 PHYSICAL DATA (updated 2018-Aug-15):
  Mass x10^24 (kg)      = 1898.13+-.19    Density (g/cm^3)       =   1.326
  Equat. radius (1 bar) = 71492+-4 km     Polar radius (km)      =  66854+-10
  Vol. Mean Radius (km) = 69911+-6        Flattening             =   0.06487
  Geometric Albedo      = 0.52            Rocky core mass (Mc/M) =  0.0261
  Sid. rot. period (III)= 9h 55m 29.71 s  Sid. rot. rate (rad/s) =  0.00017585 
  Mean solar day, hrs   = ~9.9259         
  GM (km^3/s^2)         = 126686534.911   GM 1-sigma (km^3/s^2)  =  +-1.5
  Equ. grav, ge (m/s^2) = 24.79           Pol. grav, gp (m/s^2)  =  28.34
  Vis. magnitude V(1,0) = -9.40
  Vis. mag. (opposition)= -2.70           Obliquity to orbit     =  3.13 deg
  Sidereal orbit period = 11.861982204 y  Sidereal orbit period  = 4332.589 d
  Mean daily motion     = 0.0831294 deg/d Mean orbit speed, km/s = 13.0697
  Atmos. temp. (1 bar)  = 165+-5 K        Escape speed, km/s    =  59.5           
  A_roche(ice)/Rp       =  2.76           Hill's sphere rad. Rp  = 740
                                 Perihelion   Aphelion     Mean
  Solar Constant (W/m^2)         56           46           51
  Maximum Planetary IR (W/m^2)   13.7         13.4         13.6
  Minimum Planetary IR (W/m^2)   13.7         13.4         13.6
*******************************************************************************
 
 
*******************************************************************************
Ephemeris / WWW_USER Fri Nov  9 16:03:20 2018 Pasadena, USA      / Horizons    
*******************************************************************************
Target body name: Jupiter (599)                   {source: jup341}
Center body name: Earth (399)                     {source: DE431mx}
Center-site name: GEOCENTRIC
*******************************************************************************
Start time      : A.D. 2018-Jul-15 00:00:00.0000 UT      
Stop  time      : A.D. 2018-Jul-17 00:00:00.0000 UT      
Step-size       : 5 minutes
*******************************************************************************
Target pole/equ : IAU_JUPITER                     {West-longitude positive}
Target radii    : 71492.0 x 71492.0 x 66854.0 km  {Equator, meridian, pole}    
Center geodetic : 0.00000000,0.00000000,0.0000000 {E-lon(deg),Lat(deg),Alt(km)}
Center cylindric: 0.00000000,0.00000000,0.0000000 {E-lon(deg),Dxy(km),Dz(km)}
Center pole/equ : High-precision EOP model        {East-longitude positive}
Center radii    : 6378.1 x 6378.1 x 6356.8 km     {Equator, meridian, pole}    
Target primary  : Sun
Vis. interferer : MOON (R_eq= 1737.400) km        {source: DE431mx}
Rel. light bend : Sun, EARTH                      {source: DE431mx}
Rel. lght bnd GM: 1.3271E+11, 3.9860E+05 km^3/s^2                              
Atmos refraction: NO (AIRLESS)
RA format       : DEG
Time format     : CAL 
EOP file        : eop.181108.p190130                                           
EOP coverage    : DATA-BASED 1962-JAN-20 TO 2018-NOV-08. PREDICTS-> 2019-JAN-29
Units conversion: 1 au= 149597870.700 km, c= 299792.458 km/s, 1 day= 86400.0 s 
Table cut-offs 1: Elevation (-90.0deg=NO ),Airmass (>38.000=NO), Daylight (NO )
Table cut-offs 2: Solar elongation (  0.0,180.0=NO ),Local Hour Angle( 0.0=NO )
Table cut-offs 3: RA/DEC angular rate (     0.0=NO )                           
**************************************************************************************************************************************
 Date__(UT)__HR:MN:SC.fff     R.A._(ICRF/J2K)_DEC Ang-diam Ob-lon Ob-lat Sl-lon Sl-lat   NP.ang   NP.dist            delta      deldot
**************************************************************************************************************************************
$$SOE
 2018-Jul-16 01:40:00.000     221.00261 -14.78936 39.71861 320.26  -3.49 310.05  -3.54  18.3270    -18.54 4.96355824508008  24.9661837
 2018-Jul-16 01:45:00.000     221.00266 -14.78939 39.71821 323.29  -3.49 313.07  -3.54  18.3270    -18.54 4.96360831261862  24.9666942
 2018-Jul-16 01:50:00.000     221.00271 -14.78942 39.71781 326.31  -3.49 316.09  -3.54  18.3270    -18.54 4.96365838118074  24.9672045
 2018-Jul-16 01:55:00.000     221.00276 -14.78945 39.71741 329.33  -3.49 319.11  -3.54  18.3269    -18.54 4.96370845076619  24.9677147
 2018-Jul-16 02:00:00.000     221.00281 -14.78948 39.71701 332.35  -3.49 322.13  -3.54  18.3269    -18.54 4.96375852137473  24.9682248
 2018-Jul-16 02:05:00.000     221.00286 -14.78951 39.71661 335.38  -3.49 325.16  -3.54  18.3269    -18.54 4.96380859300604  24.9687348
 2018-Jul-16 02:10:00.000     221.00291 -14.78955 39.71621 338.40  -3.49 328.18  -3.54  18.3269    -18.54 4.96385866565990  24.9692446
 2018-Jul-16 02:15:00.000     221.00296 -14.78958 39.71581 341.42  -3.49 331.20  -3.54  18.3269    -18.54 4.96390873933604  24.9697543
 2018-Jul-16 02:20:00.000     221.00302 -14.78961 39.71540 344.44  -3.49 334.22  -3.54  18.3269    -18.54 4.96395881403423  24.9702639
 2018-Jul-16 02:25:00.000     221.00307 -14.78964 39.71500 347.47  -3.49 337.25  -3.54  18.3268    -18.53 4.96400888975423  24.9707733
 2018-Jul-16 02:30:00.000     221.00312 -14.78967 39.71460 350.49  -3.49 340.27  -3.54  18.3268    -18.53 4.96405896649575  24.9712827
 2018-Jul-16 02:35:00.000     221.00317 -14.78970 39.71420 353.51  -3.49 343.29  -3.54  18.3268    -18.53 4.96410904425858  24.9717919
 2018-Jul-16 02:40:00.000     221.00322 -14.78973 39.71380 356.53  -3.49 346.31  -3.54  18.3268    -18.53 4.96415912304247  24.9723010
 2018-Jul-16 02:45:00.000     221.00327 -14.78977 39.71340 359.56  -3.49 349.33  -3.54  18.3268    -18.53 4.96420920284721  24.9728100
 2018-Jul-16 02:50:00.000     221.00332 -14.78980 39.71300   2.58  -3.49 352.36  -3.54  18.3268    -18.53 4.96425928367256  24.9733188
 2018-Jul-16 02:55:00.000     221.00338 -14.78983 39.71260   5.60  -3.49 355.38  -3.54  18.3268    -18.53 4.96430936551826  24.9738276
 2018-Jul-16 03:00:00.000     221.00343 -14.78986 39.71220   8.62  -3.49 358.40  -3.54  18.3267    -18.53 4.96435944838412  24.9743362
 2018-Jul-16 03:05:00.000     221.00348 -14.78989 39.71180  11.65  -3.49   1.42  -3.54  18.3267    -18.53 4.96440953226991  24.9748448
 2018-Jul-16 03:10:00.000     221.00353 -14.78992 39.71140  14.67  -3.49   4.44  -3.54  18.3267    -18.53 4.96445961717541  24.9753532
 2018-Jul-16 03:15:00.000     221.00358 -14.78995 39.71100  17.69  -3.49   7.47  -3.54  18.3267    -18.53 4.96450970310042  24.9758615
 2018-Jul-16 03:20:00.000     221.00363 -14.78999 39.71060  20.71  -3.49  10.49  -3.54  18.3267    -18.53 4.96455979004470  24.9763697
 2018-Jul-16 03:25:00.000     221.00369 -14.79002 39.71020  23.74  -3.49  13.51  -3.54  18.3267    -18.53 4.96460987800805  24.9768778
 2018-Jul-16 03:30:00.000     221.00374 -14.79005 39.70980  26.76  -3.49  16.53  -3.54  18.3266    -18.53 4.96465996699028  24.9773858
 2018-Jul-16 03:35:00.000     221.00379 -14.79008 39.70940  29.78  -3.49  19.56  -3.54  18.3266    -18.53 4.96471005699118  24.9778938
 2018-Jul-16 03:40:00.000     221.00384 -14.79011 39.70899  32.80  -3.49  22.58  -3.54  18.3266    -18.53 4.96476014801055  24.9784016
 2018-Jul-16 03:45:00.000     221.00389 -14.79014 39.70859  35.82  -3.49  25.60  -3.54  18.3266    -18.53 4.96481024004822  24.9789093
 2018-Jul-16 03:50:00.000     221.00394 -14.79018 39.70819  38.85  -3.49  28.62  -3.54  18.3266    -18.53 4.96486033310395  24.9794169
 2018-Jul-16 03:55:00.000     221.00400 -14.79021 39.70779  41.87  -3.49  31.64  -3.54  18.3266    -18.53 4.96491042717759  24.9799244
 2018-Jul-16 04:00:00.000     221.00405 -14.79024 39.70739  44.89  -3.49  34.67  -3.54  18.3265    -18.53 4.96496052226893  24.9804319
 2018-Jul-16 04:05:00.000     221.00410 -14.79027 39.70699  47.91  -3.49  37.69  -3.54  18.3265    -18.53 4.96501061837781  24.9809392
 2018-Jul-16 04:10:00.000     221.00415 -14.79030 39.70659  50.94  -3.49  40.71  -3.54  18.3265    -18.53 4.96506071550406  24.9814465
 2018-Jul-16 04:15:00.000     221.00420 -14.79033 39.70619  53.96  -3.49  43.73  -3.54  18.3265    -18.53 4.96511081364747  24.9819537
 2018-Jul-16 04:20:00.000     221.00426 -14.79037 39.70579  56.98  -3.49  46.76  -3.54  18.3265    -18.53 4.96516091280790  24.9824607
 2018-Jul-16 04:25:00.000     221.00431 -14.79040 39.70539  60.00  -3.49  49.78  -3.54  18.3265    -18.53 4.96521101298515  24.9829677
 2018-Jul-16 04:30:00.000     221.00436 -14.79043 39.70499  63.03  -3.49  52.80  -3.54  18.3264    -18.53 4.96526111417909  24.9834747
 2018-Jul-16 04:35:00.000     221.00441 -14.79046 39.70459  66.05  -3.49  55.82  -3.54  18.3264    -18.53 4.96531121638956  24.9839815
 2018-Jul-16 04:40:00.000     221.00447 -14.79049 39.70419  69.07  -3.49  58.84  -3.54  18.3264    -18.53 4.96536131961636  24.9844883
 2018-Jul-16 04:45:00.000     221.00452 -14.79052 39.70379  72.09  -3.49  61.87  -3.54  18.3264    -18.53 4.96541142385936  24.9849950
 2018-Jul-16 04:50:00.000     221.00457 -14.79056 39.70339  75.12  -3.49  64.89  -3.54  18.3264    -18.53 4.96546152911841  24.9855016
 2018-Jul-16 04:55:00.000     221.00462 -14.79059 39.70299  78.14  -3.49  67.91  -3.54  18.3264    -18.53 4.96551163539336  24.9860081
 2018-Jul-16 05:00:00.000     221.00468 -14.79062 39.70258  81.16  -3.49  70.93  -3.54  18.3263    -18.53 4.96556174268408  24.9865146
 2018-Jul-16 05:05:00.000     221.00473 -14.79065 39.70218  84.18  -3.49  73.95  -3.54  18.3263    -18.53 4.96561185099039  24.9870210
 2018-Jul-16 05:10:00.000     221.00478 -14.79068 39.70178  87.21  -3.49  76.98  -3.54  18.3263    -18.53 4.96566196031218  24.9875273
 2018-Jul-16 05:15:00.000     221.00483 -14.79072 39.70138  90.23  -3.49  80.00  -3.54  18.3263    -18.53 4.96571207064931  24.9880336
